{
"type": "FeatureCollection",
"name": "Kangaarsuup_Tasersua",
"crs": { "type": "name", "properties": { "name": "urn:ogc:def:crs:EPSG::3413" } },
"features": [
{ "type": "Feature", "properties": { "fid": 9, "row_id": 6, "lake_id": 6, "lake_name": "Kangaarsuup Tasersua (ID 6)", "margin": "ICE_SHEET", "region": "SW", "area_all": 84.101254904334397, "area_2016": 81.1008, "area_2017": 81.3906, "area_2018": 70.8752, "area_2019": 81.1615, "area_2020": 82.54203370965655, "area_2021": 81.6674, "area_2022": 1.5913, "area_2023": 70.8752, "area_2024": 82.5, "area_2025": 82.4016, "attached_up_to": null, "length_km": 123.44983810992083, "centroid": "-240974.83226192737, -3024373.204809322", "glof_lake": "No", "drain_yrs": null, "t_aver_all": 4.1889386553149146, "t_aver_2016": 4.6197653518621848, "t_aver_2017": null, "t_aver_2018": null, "t_aver_2019": 4.3809295952503575, "t_aver_2020": null, "t_aver_2021": null, "t_aver_2022": null, "t_aver_2023": 4.2620622333968026, "t_aver_2024": 3.4198738626684251, "t_aver_2025": null, "t_max_2016": 12.736906033400032, "t_max_2017": null, "t_max_2018": null, "t_max_2019": 11.232717463880022, "t_max_2020": null, "t_max_2021": null, "t_max_2022": null, "t_max_2023": 10.491642875600007, "t_max_2024": 11.050892471959969, "t_max_2025": null, "t_min_2016": 1.6262970574400128, "t_min_2017": null, "t_min_2018": null, "t_min_2019": 1.474776230840007, "t_min_2020": null, "t_min_2021": null, "t_min_2022": null, "t_min_2023": 1.0339883716400209, "t_min_2024": 1.7860826564000263, "t_min_2025": null, "t_stdev_2016": 0.75991163464579115, "t_stdev_2017": null, "t_stdev_2018": null, "t_stdev_2019": 0.62224390986460143, "t_stdev_2020": null, "t_stdev_2021": null, "t_stdev_2022": null, "t_stdev_2023": 0.77856580401090281, "t_stdev_2024": 0.76991664494677869, "t_stdev_2025": null, "t_count_2016": 1.0, "t_count_2017": null, "t_count_2018": null, "t_count_2019": 1.0, "t_count_2020": null, "t_count_2021": null, "t_count_2022": null, "t_count_2023": 2.0, "t_count_2024": 1.0, "t_count_2025": null, "t_date_2016": "2016-08-06T12:31:00", "t_date_2017": null, "t_date_2018": null, "t_date_2019": "2019-08-15T12:31:00", "t_date_2020": null, "t_date_2021": null, "t_date_2022": null, "t_date_2023": "2023-08-17T12:37:00", "t_date_2024": "2024-08-04T13:31:00", "t_date_2025": null, "startdate": "20160701", "enddate": "20250831", "method": "Automatic", "source": "Sentinel-1, Sentinel-2", "verified": "yes", "verif_by": "How", "edited": "Yes", "edited_by": "How" }, "geometry": { "type": "Point", "coordinates": [ -240974.832261927367654, -3024373.204809322021902 ] } }
]
}
