{
"type": "FeatureCollection",
"name": "selected_lakes_6_7_8_9",
"crs": { "type": "name", "properties": { "name": "urn:ogc:def:crs:EPSG::3413" } },
"features": [
{ "type": "Feature", "properties": { "fid": 9, "row_id": 6, "lake_id": 6, "lake_name": "Kangaarsuup Tasersua (ID 6)", "margin": "ICE_SHEET", "region": "SW", "area_all": 84.101254904334397, "area_2016": 81.1008, "area_2017": 81.3906, "area_2018": 70.8752, "area_2019": 81.1615, "area_2020": 82.54203370965655, "area_2021": 81.6674, "area_2022": 1.5913, "area_2023": 70.8752, "area_2024": 82.5, "area_2025": 82.4016, "attached_up_to": null, "length_km": 123.44983810992083, "centroid": "-240974.83226192737, -3024373.204809322", "glof_lake": "No", "drain_yrs": null, "t_aver_all": 4.1889386553149146, "t_aver_2016": 4.6197653518621848, "t_aver_2017": null, "t_aver_2018": null, "t_aver_2019": 4.3809295952503575, "t_aver_2020": null, "t_aver_2021": null, "t_aver_2022": null, "t_aver_2023": 4.2620622333968026, "t_aver_2024": 3.4198738626684251, "t_aver_2025": null, "t_max_2016": 12.736906033400032, "t_max_2017": null, "t_max_2018": null, "t_max_2019": 11.232717463880022, "t_max_2020": null, "t_max_2021": null, "t_max_2022": null, "t_max_2023": 10.491642875600007, "t_max_2024": 11.050892471959969, "t_max_2025": null, "t_min_2016": 1.6262970574400128, "t_min_2017": null, "t_min_2018": null, "t_min_2019": 1.474776230840007, "t_min_2020": null, "t_min_2021": null, "t_min_2022": null, "t_min_2023": 1.0339883716400209, "t_min_2024": 1.7860826564000263, "t_min_2025": null, "t_stdev_2016": 0.75991163464579115, "t_stdev_2017": null, "t_stdev_2018": null, "t_stdev_2019": 0.62224390986460143, "t_stdev_2020": null, "t_stdev_2021": null, "t_stdev_2022": null, "t_stdev_2023": 0.77856580401090281, "t_stdev_2024": 0.76991664494677869, "t_stdev_2025": null, "t_count_2016": 1.0, "t_count_2017": null, "t_count_2018": null, "t_count_2019": 1.0, "t_count_2020": null, "t_count_2021": null, "t_count_2022": null, "t_count_2023": 2.0, "t_count_2024": 1.0, "t_count_2025": null, "t_date_2016": "2016-08-06T12:31:00", "t_date_2017": null, "t_date_2018": null, "t_date_2019": "2019-08-15T12:31:00", "t_date_2020": null, "t_date_2021": null, "t_date_2022": null, "t_date_2023": "2023-08-17T12:37:00", "t_date_2024": "2024-08-04T13:31:00", "t_date_2025": null, "startdate": "20160701", "enddate": "20250831", "method": "Automatic", "source": "Sentinel-1, Sentinel-2", "verified": "yes", "verif_by": "How", "edited": "Yes", "edited_by": "How" }, "geometry": { "type": "Point", "coordinates": [ -240974.832261927367654, -3024373.204809322021902 ] } },
{ "type": "Feature", "properties": { "fid": 10, "row_id": 7, "lake_id": 7, "lake_name": "Lake ID 7", "margin": "ICE_SHEET", "region": "NE", "area_all": 75.7197, "area_2016": 65.8575, "area_2017": null, "area_2018": 63.3299, "area_2019": 68.6495, "area_2020": 71.4843, "area_2021": 67.8312, "area_2022": 51.0582, "area_2023": 63.3299, "area_2024": 64.6254, "area_2025": 26.3503, "attached_up_to": null, "length_km": 141.98, "centroid": "434027.1534554416, -1044251.5366872821", "glof_lake": "No", "drain_yrs": null, "t_aver_all": 3.7737040103600465, "t_aver_2016": 4.4502326533206826, "t_aver_2017": 4.1425809767901614, "t_aver_2018": 1.724461015043715, "t_aver_2019": 5.2090626928690229, "t_aver_2020": 4.4226116539298079, "t_aver_2021": 2.5203723562014435, "t_aver_2022": null, "t_aver_2023": 2.9648587088328893, "t_aver_2024": 2.4917744873370129, "t_aver_2025": 1.9995401571251352, "t_max_2016": 19.139349688280049, "t_max_2017": 20.216525019200049, "t_max_2018": 8.5384016745200029, "t_max_2019": 17.52496415396007, "t_max_2020": 15.406427505680028, "t_max_2021": 11.541268965320057, "t_max_2022": null, "t_max_2023": 16.976734254080043, "t_max_2024": 18.76743493208005, "t_max_2025": 14.012435900959986, "t_min_2016": 0.079000972839992301, "t_min_2017": 0.61621117623997179, "t_min_2018": 0.9623603445199933, "t_min_2019": 0.16067742560005627, "t_min_2020": 0.21302098388002833, "t_min_2021": 0.75023118728000782, "t_min_2022": null, "t_min_2023": 0.75120245811996256, "t_min_2024": 0.64003422248003972, "t_min_2025": 0.64554407072000686, "t_stdev_2016": 2.6759429946687554, "t_stdev_2017": 2.5294737629863193, "t_stdev_2018": 0.68111033945732458, "t_stdev_2019": 1.7218614127119953, "t_stdev_2020": 1.6961839235578471, "t_stdev_2021": 1.3682046315977745, "t_stdev_2022": null, "t_stdev_2023": 1.4053126689054949, "t_stdev_2024": 3.153205693345313, "t_stdev_2025": 1.61038502149239, "t_count_2016": 4.0, "t_count_2017": 7.0, "t_count_2018": 1.0, "t_count_2019": 9.0, "t_count_2020": 5.0, "t_count_2021": 2.0, "t_count_2022": null, "t_count_2023": 4.0, "t_count_2024": 4.0, "t_count_2025": 4.0, "t_date_2016": "2016-08-19T13:34:00", "t_date_2017": "2017-08-01T18:09:00", "t_date_2018": "2018-08-10T12:38:00", "t_date_2019": "2019-08-05T18:21:00", "t_date_2020": "2020-08-03T18:45:00", "t_date_2021": "2021-08-08T13:40:00", "t_date_2022": null, "t_date_2023": "2023-08-06T12:51:00", "t_date_2024": "2024-08-04T19:08:00", "t_date_2025": "2025-08-19T14:39:00", "startdate": "20160701", "enddate": "20250831", "method": "Automatic", "source": "Sentinel-1, Sentinel-2", "verified": "yes", "verif_by": "How", "edited": null, "edited_by": null }, "geometry": { "type": "Point", "coordinates": [ 434027.153455441584811, -1044251.536687282146886 ] } },
{ "type": "Feature", "properties": { "fid": 11, "row_id": 8, "lake_id": 8, "lake_name": "Ilulialik (AP), Isortuarsuup Tasia (ID 8)", "margin": "ICE_SHEET", "region": "SW", "area_all": 64.285045954671972, "area_2016": 62.1191, "area_2017": 62.5718, "area_2018": null, "area_2019": 61.7091, "area_2020": 62.8039, "area_2021": 61.8859, "area_2022": 0.7258, "area_2023": null, "area_2024": 62.1028, "area_2025": 62.6066, "attached_up_to": null, "length_km": 86.037919386436968, "centroid": "-259205.6076216828, -2873963.8978038826", "glof_lake": "No", "drain_yrs": null, "t_aver_all": 5.2672756848968554, "t_aver_2016": 8.6147841028417496, "t_aver_2017": null, "t_aver_2018": 7.2705122029529052, "t_aver_2019": 8.1953483747974811, "t_aver_2020": null, "t_aver_2021": null, "t_aver_2022": null, "t_aver_2023": 2.3606941739352401, "t_aver_2024": null, "t_aver_2025": null, "t_max_2016": 18.285323211080026, "t_max_2017": null, "t_max_2018": 18.263283818119987, "t_max_2019": 18.45337358239999, "t_max_2020": null, "t_max_2021": null, "t_max_2022": null, "t_max_2023": 16.434014202440039, "t_max_2024": null, "t_max_2025": null, "t_min_2016": 0.72819179432002556, "t_min_2017": null, "t_min_2018": 3.040544401840009, "t_min_2019": 1.7860826564000263, "t_min_2020": null, "t_min_2021": null, "t_min_2022": null, "t_min_2023": 1.5886993905999702, "t_min_2024": null, "t_min_2025": null, "t_stdev_2016": 0.96631994677933775, "t_stdev_2017": null, "t_stdev_2018": 2.6679905910092683, "t_stdev_2019": 0.93493929828950517, "t_stdev_2020": null, "t_stdev_2021": null, "t_stdev_2022": null, "t_stdev_2023": 0.81253043861723906, "t_stdev_2024": null, "t_stdev_2025": null, "t_count_2016": 2.0, "t_count_2017": null, "t_count_2018": 1.0, "t_count_2019": 1.0, "t_count_2020": null, "t_count_2021": null, "t_count_2022": null, "t_count_2023": 4.0, "t_count_2024": null, "t_count_2025": null, "t_date_2016": "2016-08-13T12:37:00", "t_date_2017": null, "t_date_2018": "2018-08-10T12:43:00", "t_date_2019": "2019-08-13T12:43:00", "t_date_2020": null, "t_date_2021": null, "t_date_2022": null, "t_date_2023": "2023-08-17T12:37:00", "t_date_2024": null, "t_date_2025": null, "startdate": "20160701", "enddate": "20250831", "method": "Automatic", "source": "Sentinel-1, Sentinel-2", "verified": "yes", "verif_by": "How", "edited": null, "edited_by": null }, "geometry": { "type": "Point", "coordinates": [ -259205.607621682807803, -2873963.897803882602602 ] } },
{ "type": "Feature", "properties": { "fid": 12, "row_id": 9, "lake_id": 9, "lake_name": "Furesø (ID 9)", "margin": "ICE_CAP", "region": "NE", "area_all": 55.541885078688694, "area_2016": 53.238065243022042, "area_2017": null, "area_2018": null, "area_2019": 44.311351033127956, "area_2020": 52.449204045392236, "area_2021": 53.455712439348588, "area_2022": 42.9281, "area_2023": null, "area_2024": 52.713686140733081, "area_2025": 52.482365552065971, "attached_up_to": null, "length_km": 106.67553895482919, "centroid": "636602.2116068836, -1857139.4683115452", "glof_lake": "No", "drain_yrs": null, "t_aver_all": 5.2159178351858433, "t_aver_2016": 5.8484698752203412, "t_aver_2017": 4.6624079891949428, "t_aver_2018": 4.3574602584295201, "t_aver_2019": 6.4147991036209602, "t_aver_2020": 4.3436677285370209, "t_aver_2021": 5.0839515931564536, "t_aver_2022": 4.9572263605057918, "t_aver_2023": 5.5482414681911365, "t_aver_2024": null, "t_aver_2025": null, "t_max_2016": 17.257736514320015, "t_max_2017": 16.288003224080001, "t_max_2018": 13.219017754399999, "t_max_2019": 16.935410392280005, "t_max_2020": 14.607499510880018, "t_max_2021": 12.224490147080019, "t_max_2022": 14.635048752080024, "t_max_2023": 15.332044554440017, "t_max_2024": null, "t_max_2025": null, "t_min_2016": 4.202151109639999, "t_min_2017": 3.0919166892800263, "t_min_2018": 2.8109144290399968, "t_min_2019": 2.5409318652800152, "t_min_2020": 0.11384371556005135, "t_min_2021": 3.075387144560068, "t_min_2022": 3.2544572123600233, "t_min_2023": 1.1634698052799877, "t_min_2024": null, "t_min_2025": null, "t_stdev_2016": 0.87936640540490951, "t_stdev_2017": 0.76226466330129494, "t_stdev_2018": 0.73516089594834577, "t_stdev_2019": 1.7486940168273091, "t_stdev_2020": 1.1063629658956391, "t_stdev_2021": 0.67152944999874564, "t_stdev_2022": 0.75495214806769462, "t_stdev_2023": 0.90127478051910836, "t_stdev_2024": null, "t_stdev_2025": null, "t_count_2016": 2.0, "t_count_2017": 3.0, "t_count_2018": 1.0, "t_count_2019": 3.0, "t_count_2020": 3.0, "t_count_2021": 1.0, "t_count_2022": 1.0, "t_count_2023": 2.0, "t_count_2024": null, "t_count_2025": null, "t_date_2016": "2016-08-21T11:45:00", "t_date_2017": "2017-08-15T11:51:00", "t_date_2018": "2018-08-20T11:38:00", "t_date_2019": "2019-08-14T11:45:00", "t_date_2020": "2020-08-23T11:51:00", "t_date_2021": "2021-08-26T11:52:00", "t_date_2022": "2022-08-05T11:51:00", "t_date_2023": "2023-08-11T11:33:00", "t_date_2024": null, "t_date_2025": null, "startdate": "20160701", "enddate": "20250831", "method": "Automatic", "source": "Sentinel-1, Sentinel-2", "verified": "yes", "verif_by": "How", "edited": "Yes", "edited_by": "How" }, "geometry": { "type": "Point", "coordinates": [ 636313.067110103671439, -1857235.270153939723969 ] } }
]
}
