{
"type": "FeatureCollection",
"name": "ice_marginal_lakes_Greenland_ESA_CCI_dataset",
"crs": { "type": "name", "properties": { "name": "urn:ogc:def:crs:OGC:1.3:CRS84" } },
"features": [
{ "type": "Feature", "properties": { "id": 3219, "short_name": "GLWD00003219", "name": "Sermersuaq-2", "country": "Greenland", "max_distance_to_land": 1.8, "lat_min_box": 65.4875, "lat_max_box": 65.6708, "lon_min_box": -50.4208, "lon_max_box": -50.0958, "lat centre": 65.6153, "lon centre": -50.3181, "lwl_data": 4, "lwe_data": 4, "lswt_data": 0, "lic_data": false, "lwlr_data": false, "type": "Lake" }, "geometry": { "type": "Point", "coordinates": [ -50.3181, 65.6153 ] } },
{ "type": "Feature", "properties": { "id": 300000182, "short_name": "HYLA00000182", "name": "None", "country": "Greenland", "max_distance_to_land": 2.4, "lat_min_box": 76.9125, "lat_max_box": 77.1708, "lon_min_box": -21.9292, "lon_max_box": -20.1458, "lat centre": 77.0347, "lon centre": -20.3403, "lwl_data": 4, "lwe_data": 4, "lswt_data": 0, "lic_data": false, "lwlr_data": false, "type": "Lake" }, "geometry": { "type": "Point", "coordinates": [ -20.3403, 77.0347 ] } },
{ "type": "Feature", "properties": { "id": 300000185, "short_name": "HYLA00000185", "name": "None", "country": "Greenland", "max_distance_to_land": 1.5, "lat_min_box": 71.9625, "lat_max_box": 72.1375, "lon_min_box": -26.4792, "lon_max_box": -25.9625, "lat centre": 72.0264, "lon centre": -26.2931, "lwl_data": 4, "lwe_data": 4, "lswt_data": 0, "lic_data": false, "lwlr_data": false, "type": "Lake" }, "geometry": { "type": "Point", "coordinates": [ -26.2931, 72.0264 ] } },
{ "type": "Feature", "properties": { "id": 300001720, "short_name": "HYLA00001720", "name": "None", "country": "Greenland", "max_distance_to_land": 1.5, "lat_min_box": 81.4708, "lat_max_box": 81.9292, "lon_min_box": -48.4708, "lon_max_box": -46.4875, "lat centre": 81.7681, "lon centre": -47.5375, "lwl_data": 4, "lwe_data": 4, "lswt_data": 0, "lic_data": false, "lwlr_data": false, "type": "Lake" }, "geometry": { "type": "Point", "coordinates": [ -47.5375, 81.7681 ] } },
{ "type": "Feature", "properties": { "id": 300001744, "short_name": "HYLA00001744", "name": "None", "country": "Greenland", "max_distance_to_land": 1.7, "lat_min_box": 79.4958, "lat_max_box": 79.6625, "lon_min_box": -22.7708, "lon_max_box": -22.3708, "lat centre": 79.5931, "lon centre": -22.5403, "lwl_data": 4, "lwe_data": 4, "lswt_data": 0, "lic_data": false, "lwlr_data": false, "type": "Lake" }, "geometry": { "type": "Point", "coordinates": [ -22.5403, 79.5931 ] } },
{ "type": "Feature", "properties": { "id": 300002892, "short_name": "HYLA00002892", "name": "None", "country": "Greenland", "max_distance_to_land": 1.9, "lat_min_box": 66.1792, "lat_max_box": 66.3458, "lon_min_box": -50.2208, "lon_max_box": -49.7458, "lat centre": 66.2819, "lon centre": -49.8597, "lwl_data": 4, "lwe_data": 4, "lswt_data": 0, "lic_data": false, "lwlr_data": false, "type": "Lake" }, "geometry": { "type": "Point", "coordinates": [ -49.8597, 66.2819 ] } },
{ "type": "Feature", "properties": { "id": 300003969, "short_name": "HYLA00003969", "name": "None", "country": "Greenland", "max_distance_to_land": 1.9, "lat_min_box": 62.4542, "lat_max_box": 62.5875, "lon_min_box": -49.7958, "lon_max_box": -49.2875, "lat centre": 62.5153, "lon centre": -49.6125, "lwl_data": 4, "lwe_data": 4, "lswt_data": 0, "lic_data": false, "lwlr_data": false, "type": "Lake" }, "geometry": { "type": "Point", "coordinates": [ -49.6125, 62.5153 ] } }
]
}
